[{"OBJECT_NAME":"STARLINK-35428","OBJECT_ID":"2025-237B","EPOCH":"2026-03-09T22:05:18.399840","MEAN_MOTION":15.30283985,"ECCENTRICITY":0.00011106,"INCLINATION":53.1611,"RA_OF_ASC_NODE":38.7127,"ARG_OF_PERICENTER":123.7277,"MEAN_ANOMALY":236.383,"EPHEMERIS_TYPE":0,"CLASSIFICATION_TYPE":"U","NORAD_CAT_ID":66115,"ELEMENT_SET_NO":999,"REV_AT_EPOCH":2263,"BSTAR":0.0020127035,"MEAN_MOTION_DOT":0.00059889,"MEAN_MOTION_DDOT":0},{"OBJECT_NAME":"GLOBAL-34","OBJECT_ID":"2026-043A","EPOCH":"2026-03-09T11:23:30.999840","MEAN_MOTION":15.31488019,"ECCENTRICITY":0.00068849,"INCLINATION":42.0215,"RA_OF_ASC_NODE":76.7399,"ARG_OF_PERICENTER":289.2632,"MEAN_ANOMALY":70.746,"EPHEMERIS_TYPE":0,"CLASSIFICATION_TYPE":"U","NORAD_CAT_ID":68098,"ELEMENT_SET_NO":999,"REV_AT_EPOCH":53,"BSTAR":0.00045822046,"MEAN_MOTION_DOT":0.00014018,"MEAN_MOTION_DDOT":0}]
